{
  "type": "FeatureCollection",
  "features": [
    {
      "type": "Feature",
      "properties": {
        "norad_id": 66563,
        "name": "STARLINK-35437",
        "group": "last-30-days",
        "lat": 20.446459427658077,
        "lon": 132.7786582197199,
        "alt_km": 411.13587100166114,
        "timestamp": "2025-12-14T18:52:54.241959+00:00",
        "meta_object_name": "STARLINK-35437",
        "meta_object_id": "2025-268G",
        "meta_epoch": "2025-12-13T18:00:59.271264",
        "meta_mean_motion": 15.50599495,
        "meta_eccentricity": 9.723e-05,
        "meta_inclination": 42.9993,
        "meta_ra_of_asc_node": 115.2574,
        "meta_arg_of_pericenter": 282.1905,
        "meta_mean_anomaly": 77.8847,
        "meta_ephemeris_type": 0,
        "meta_classification_type": "U",
        "meta_norad_cat_id": 66563,
        "meta_element_set_no": 999,
        "meta_rev_at_epoch": 478,
        "meta_bstar": 0.0020498902,
        "meta_mean_motion_dot": 0.00121894,
        "meta_mean_motion_ddot": 0,
        "tle_line1": "1 66563U 25268G   25347.75068601  .00121894  00000+0  20499-2 0  9993",
        "tle_line2": "2 66563  42.9993 115.2574 0000972 282.1905  77.8847 15.50599495  4786"
      },
      "geometry": {
        "type": "Point",
        "coordinates": [
          132.7786582197199,
          20.446459427658077
        ]
      }
    },
    {
      "type": "Feature",
      "properties": {
        "norad_id": 66564,
        "name": "STARLINK-35358",
        "group": "last-30-days",
        "lat": 21.662025094991552,
        "lon": 134.41900542417176,
        "alt_km": 410.5669182779693,
        "timestamp": "2025-12-14T18:52:54.241969+00:00",
        "meta_object_name": "STARLINK-35358",
        "meta_object_id": "2025-268H",
        "meta_epoch": "2025-12-13T16:27:43.902720",
        "meta_mean_motion": 15.50605264,
        "meta_eccentricity": 0.00016791,
        "meta_inclination": 43.0002,
        "meta_ra_of_asc_node": 115.6325,
        "meta_arg_of_pericenter": 311.2605,
        "meta_mean_anomaly": 48.811,
        "meta_ephemeris_type": 0,
        "meta_classification_type": "U",
        "meta_norad_cat_id": 66564,
        "meta_element_set_no": 999,
        "meta_rev_at_epoch": 477,
        "meta_bstar": 0.0017717022,
        "meta_mean_motion_dot": 0.00105101,
        "meta_mean_motion_ddot": 0,
        "tle_line1": "1 66564U 25268H   25347.68592480  .00105101  00000+0  17717-2 0  9995",
        "tle_line2": "2 66564  43.0002 115.6325 0001679 311.2605  48.8110 15.50605264  4776"
      },
      "geometry": {
        "type": "Point",
        "coordinates": [
          134.41900542417176,
          21.662025094991552
        ]
      }
    },
    {
      "type": "Feature",
      "properties": {
        "norad_id": 66565,
        "name": "STARLINK-35893",
        "group": "last-30-days",
        "lat": 22.85034051479403,
        "lon": 136.07125172494446,
        "alt_km": 411.01358247921144,
        "timestamp": "2025-12-14T18:52:54.241979+00:00",
        "meta_object_name": "STARLINK-35893",
        "meta_object_id": "2025-268J",
        "meta_epoch": "2025-12-13T17:59:59.574048",
        "meta_mean_motion": 15.50609427,
        "meta_eccentricity": 0.00018158,
        "meta_inclination": 42.9998,
        "meta_ra_of_asc_node": 115.2522,
        "meta_arg_of_pericenter": 277.9053,
        "meta_mean_anomaly": 82.1601,
        "meta_ephemeris_type": 0,
        "meta_classification_type": "U",
        "meta_norad_cat_id": 66565,
        "meta_element_set_no": 999,
        "meta_rev_at_epoch": 478,
        "meta_bstar": 0.002034832,
        "meta_mean_motion_dot": 0.00121027,
        "meta_mean_motion_ddot": 0,
        "tle_line1": "1 66565U 25268J   25347.74999507  .00121027  00000+0  20348-2 0  9993",
        "tle_line2": "2 66565  42.9998 115.2522 0001815 277.9053  82.1601 15.50609427  4783"
      },
      "geometry": {
        "type": "Point",
        "coordinates": [
          136.07125172494446,
          22.85034051479403
        ]
      }
    },
    {
      "type": "Feature",
      "properties": {
        "norad_id": 66566,
        "name": "STARLINK-35871",
        "group": "last-30-days",
        "lat": 24.000156565261758,
        "lon": 137.72205149995574,
        "alt_km": 410.64422188484787,
        "timestamp": "2025-12-14T18:52:54.241989+00:00",
        "meta_object_name": "STARLINK-35871",
        "meta_object_id": "2025-268K",
        "meta_epoch": "2025-12-13T17:59:30.214464",
        "meta_mean_motion": 15.50606074,
        "meta_eccentricity": 0.00011009,
        "meta_inclination": 42.9994,
        "meta_ra_of_asc_node": 115.249,
        "meta_arg_of_pericenter": 280.1645,
        "meta_mean_anomaly": 79.9091,
        "meta_ephemeris_type": 0,
        "meta_classification_type": "U",
        "meta_norad_cat_id": 66566,
        "meta_element_set_no": 999,
        "meta_rev_at_epoch": 478,
        "meta_bstar": 0.0021057243,
        "meta_mean_motion_dot": 0.00125308,
        "meta_mean_motion_ddot": 0,
        "tle_line1": "1 66566U 25268K   25347.74965526  .00125308  00000+0  21057-2 0  9992",
        "tle_line2": "2 66566  42.9994 115.2490 0001100 280.1645  79.9091 15.50606074  4786"
      },
      "geometry": {
        "type": "Point",
        "coordinates": [
          137.72205149995574,
          24.000156565261758
        ]
      }
    },
    {
      "type": "Feature",
      "properties": {
        "norad_id": 66567,
        "name": "STARLINK-35825",
        "group": "last-30-days",
        "lat": 25.079503053292513,
        "lon": 139.32377078840332,
        "alt_km": 410.8194746288027,
        "timestamp": "2025-12-14T18:52:54.241999+00:00",
        "meta_object_name": "STARLINK-35825",
        "meta_object_id": "2025-268L",
        "meta_epoch": "2025-12-13T16:26:14.708544",
        "meta_mean_motion": 15.50597371,
        "meta_eccentricity": 0.0002181,
        "meta_inclination": 43,
        "meta_ra_of_asc_node": 115.624,
        "meta_arg_of_pericenter": 286.4938,
        "meta_mean_anomaly": 73.5683,
        "meta_ephemeris_type": 0,
        "meta_classification_type": "U",
        "meta_norad_cat_id": 66567,
        "meta_element_set_no": 999,
        "meta_rev_at_epoch": 477,
        "meta_bstar": 0.001467879,
        "meta_mean_motion_dot": 0.00086792,
        "meta_mean_motion_ddot": 0,
        "tle_line1": "1 66567U 25268L   25347.68489246  .00086792  00000+0  14679-2 0  9991",
        "tle_line2": "2 66567  43.0000 115.6240 0002181 286.4938  73.5683 15.50597371  4773"
      },
      "geometry": {
        "type": "Point",
        "coordinates": [
          139.32377078840332,
          25.079503053292513
        ]
      }
    },
    {
      "type": "Feature",
      "properties": {
        "norad_id": 66568,
        "name": "STARLINK-35803",
        "group": "last-30-days",
        "lat": 26.136030181835526,
        "lon": 140.94378951726955,
        "alt_km": 410.8612383013324,
        "timestamp": "2025-12-14T18:52:54.242009+00:00",
        "meta_object_name": "STARLINK-35803",
        "meta_object_id": "2025-268M",
        "meta_epoch": "2025-12-13T16:25:45.123456",
        "meta_mean_motion": 15.50584485,
        "meta_eccentricity": 0.00022584,
        "meta_inclination": 42.9998,
        "meta_ra_of_asc_node": 115.6195,
        "meta_arg_of_pericenter": 285.1954,
        "meta_mean_anomaly": 74.8657,
        "meta_ephemeris_type": 0,
        "meta_classification_type": "U",
        "meta_norad_cat_id": 66568,
        "meta_element_set_no": 999,
        "meta_rev_at_epoch": 477,
        "meta_bstar": 0.0012493893,
        "meta_mean_motion_dot": 0.00073664,
        "meta_mean_motion_ddot": 0,
        "tle_line1": "1 66568U 25268M   25347.68455004  .00073664  00000+0  12494-2 0  9994",
        "tle_line2": "2 66568  42.9998 115.6195 0002258 285.1954  74.8657 15.50584485  4773"
      },
      "geometry": {
        "type": "Point",
        "coordinates": [
          140.94378951726955,
          26.136030181835526
        ]
      }
    },
    {
      "type": "Feature",
      "properties": {
        "norad_id": 66569,
        "name": "STARLINK-35835",
        "group": "last-30-days",
        "lat": 27.41905320088521,
        "lon": 142.99461772689136,
        "alt_km": 410.14773332404366,
        "timestamp": "2025-12-14T18:52:54.242019+00:00",
        "meta_object_name": "STARLINK-35835",
        "meta_object_id": "2025-268N",
        "meta_epoch": "2025-12-13T17:58:01.207776",
        "meta_mean_motion": 15.50616342,
        "meta_eccentricity": 0.00019184,
        "meta_inclination": 42.9998,
        "meta_ra_of_asc_node": 115.2408,
        "meta_arg_of_pericenter": 286.3578,
        "meta_mean_anomaly": 73.7072,
        "meta_ephemeris_type": 0,
        "meta_classification_type": "U",
        "meta_norad_cat_id": 66569,
        "meta_element_set_no": 999,
        "meta_rev_at_epoch": 478,
        "meta_bstar": 0.0023641011,
        "meta_mean_motion_dot": 0.00141065,
        "meta_mean_motion_ddot": 0,
        "tle_line1": "1 66569U 25268N   25347.74862509  .00141065  00000+0  23641-2 0  9991",
        "tle_line2": "2 66569  42.9998 115.2408 0001918 286.3578  73.7072 15.50616342  4782"
      },
      "geometry": {
        "type": "Point",
        "coordinates": [
          142.99461772689136,
          27.41905320088521
        ]
      }
    }
  ]
}